format  = 'OEF2.0'       ! file format
rectype = 'ML'           ! record type (1L/ML)
refsys  = ECLM J2000     ! default reference system
END_OF_HEADER
2023DZ2
! Keplerian elements: a, e, i, long. node, arg. peric., mean anomaly
 KEP   2.0835764259470859E+00  5.2346514430764213E-01   0.1496894168754 186.3377549861472  10.1109367129794  3.1537820765864774E+02
 MJD     61000.000000000 TDT
 MAG  24.242  0.150
! Non-gravitational parameters: model used, number of model parameters, dimension
 LSP   0  0    6
! PERIHELION   9.9289679146269338E-01
! APHELION   3.1742560604314787E+00
! ANODE  -1.2500883815134167E-03
! DNODE   2.1222265938448484E+00
! MOID   4.0790791364873934E-05
! PERIOD   1.0985316639608775E+03
! PHA F
! VINFTY     7.3122975711782
! U_PAR 0.0
! ORB_TYPE Apollo
! RMS    1.78845E-08   4.60994E-09   8.06241E-07   1.43246E-05   1.47363E-05   4.19103E-06
 COV   3.198543496999059E-16  7.630805890515280E-17  2.067654175154530E-17
 COV  -1.448168972215592E-16  4.811276901431984E-15 -7.358889404731087E-14
 COV   2.125152083231266E-17  3.080006943439821E-17 -8.225813037655180E-16
 COV   7.231778078186492E-15 -1.893828366420414E-14  6.500253195562938E-13
 COV  -7.577025405015062E-12  7.607028586282789E-12 -1.245639030907985E-14
 COV   2.051941487263971E-10 -2.064871147917833E-10  3.691428953894485E-13
 COV   2.171572424511823E-10 -3.872361871522752E-12  1.756471233573821E-11
 COR   1.000000000000000E+00  9.255486851637802E-01  1.433958674311451E-03
 COR  -5.652760970845305E-04  1.825563999462772E-02 -9.817832642697625E-01
 COR   9.999999999999999E-01  8.286889565049506E-03 -1.245665225228968E-02
 COR   1.064542302064113E-01 -9.802234521597037E-01  1.000000000000000E+00
 COR  -6.560714218086076E-01  6.402694090155433E-01 -3.686434743021150E-03
 COR   9.999999999999998E-01 -9.781902072028031E-01  6.148816143354800E-03
 COR   1.000000000000000E+00 -6.270010316396070E-02  1.000000000000000E+00
